{"type": "FeatureCollection", "features": [{"type": "Feature", "properties": {"height": 8, "species": "", "leaf_type": "", "source_id": "osm/node/955912323", "source": "OpenStreetMap", "licence": "ODbL 1.0"}, "geometry": {"type": "Point", "coordinates": [-0.1232563, 51.5077972]}}, {"type": "Feature", "properties": {"height": 8, "species": "", "leaf_type": "", "source_id": "osm/node/968344404", "source": "OpenStreetMap", "licence": "ODbL 1.0"}, "geometry": {"type": "Point", "coordinates": [-0.1229307, 51.5076923]}}, {"type": "Feature", "properties": {"height": 8, "species": "", "leaf_type": "", "source_id": "osm/node/1782020024", "source": "OpenStreetMap", "licence": "ODbL 1.0"}, "geometry": {"type": "Point", "coordinates": [-0.1269013, 51.5008581]}}, {"type": "Feature", "properties": {"height": 8, "species": "", "leaf_type": "", "source_id": "osm/node/1782020426", "source": "OpenStreetMap", "licence": "ODbL 1.0"}, "geometry": {"type": "Point", "coordinates": [-0.126727, 51.5008482]}}, {"type": "Feature", "properties": {"height": 8, "species": "", "leaf_type": "broadleaved", "source_id": "osm/node/2402041420", "source": "OpenStreetMap", "licence": "ODbL 1.0"}, "geometry": {"type": "Point", "coordinates": [-0.123836, 51.501338]}}, {"type": "Feature", "properties": {"height": 8, "species": "", "leaf_type": "broadleaved", "source_id": "osm/node/2402041421", "source": "OpenStreetMap", "licence": "ODbL 1.0"}, "geometry": {"type": "Point", "coordinates": [-0.1238285, 51.5014033]}}, {"type": "Feature", "properties": {"height": 8, "species": "", "leaf_type": "", "source_id": "osm/node/2402041474", "source": "OpenStreetMap", "licence": "ODbL 1.0"}, "geometry": {"type": "Point", "coordinates": [-0.1237252, 51.5016959]}}, {"type": "Feature", "properties": {"height": 8, "species": "Platanus", "leaf_type": "broadleaved", "source_id": "osm/node/2402041485", "source": "OpenStreetMap", "licence": "ODbL 1.0"}, "geometry": {"type": "Point", "coordinates": [-0.1236894, 51.5019195]}}, {"type": "Feature", "properties": {"height": 8, "species": "", "leaf_type": "", "source_id": "osm/node/2476035230", "source": "OpenStreetMap", "licence": "ODbL 1.0"}, "geometry": {"type": "Point", "coordinates": [-0.1263295, 51.5032756]}}, {"type": "Feature", "properties": {"height": 8, "species": "", "leaf_type": "", "source_id": "osm/node/2476035231", "source": "OpenStreetMap", "licence": "ODbL 1.0"}, "geometry": {"type": "Point", "coordinates": [-0.1263188, 51.5030328]}}, {"type": "Feature", "properties": {"height": 8, "species": "", "leaf_type": "", "source_id": "osm/node/2476037133", "source": "OpenStreetMap", "licence": "ODbL 1.0"}, "geometry": {"type": "Point", "coordinates": [-0.1262919, 51.5022789]}}, {"type": "Feature", "properties": {"height": 8, "species": "", "leaf_type": "", "source_id": "osm/node/2685306683", "source": "OpenStreetMap", "licence": "ODbL 1.0"}, "geometry": {"type": "Point", "coordinates": [-0.123904, 51.5006665]}}, {"type": "Feature", "properties": {"height": 8, "species": "", "leaf_type": "broadleaved", "source_id": "osm/node/2685306686", "source": "OpenStreetMap", "licence": "ODbL 1.0"}, "geometry": {"type": "Point", "coordinates": [-0.1258569, 51.5007176]}}, {"type": "Feature", "properties": {"height": 8, "species": "", "leaf_type": "", "source_id": "osm/node/2685306687", "source": "OpenStreetMap", "licence": "ODbL 1.0"}, "geometry": {"type": "Point", "coordinates": [-0.125822, 51.5004033]}}, {"type": "Feature", "properties": {"height": 8, "species": "", "leaf_type": "", "source_id": "osm/node/2685306688", "source": "OpenStreetMap", "licence": "ODbL 1.0"}, "geometry": {"type": "Point", "coordinates": [-0.1276481, 51.5005634]}}, {"type": "Feature", "properties": {"height": 8, "species": "", "leaf_type": "", "source_id": "osm/node/2685306690", "source": "OpenStreetMap", "licence": "ODbL 1.0"}, "geometry": {"type": "Point", "coordinates": [-0.1266117, 51.4989576]}}, {"type": "Feature", "properties": {"height": 8, "species": "", "leaf_type": "", "source_id": "osm/node/3079331483", "source": "OpenStreetMap", "licence": "ODbL 1.0"}, "geometry": {"type": "Point", "coordinates": [-0.1265184, 51.4988382]}}, {"type": "Feature", "properties": {"height": 8, "species": "", "leaf_type": "", "source_id": "osm/node/3079331496", "source": "OpenStreetMap", "licence": "ODbL 1.0"}, "geometry": {"type": "Point", "coordinates": [-0.12646, 51.4990272]}}, {"type": "Feature", "properties": {"height": 8, "species": "", "leaf_type": "", "source_id": "osm/node/3079331498", "source": "OpenStreetMap", "licence": "ODbL 1.0"}, "geometry": {"type": "Point", "coordinates": [-0.1266002, 51.4990345]}}, {"type": "Feature", "properties": {"height": 8, "species": "", "leaf_type": "", "source_id": "osm/node/3079331518", "source": "OpenStreetMap", "licence": "ODbL 1.0"}, "geometry": {"type": "Point", "coordinates": [-0.1264016, 51.4995798]}}, {"type": "Feature", "properties": {"height": 8, "species": "", "leaf_type": "", "source_id": "osm/node/3079331519", "source": "OpenStreetMap", "licence": "ODbL 1.0"}, "geometry": {"type": "Point", "coordinates": [-0.1265301, 51.499587]}}, {"type": "Feature", "properties": {"height": 8, "species": "", "leaf_type": "", "source_id": "osm/node/3079331526", "source": "OpenStreetMap", "licence": "ODbL 1.0"}, "geometry": {"type": "Point", "coordinates": [-0.1266702, 51.4997106]}}, {"type": "Feature", "properties": {"height": 8, "species": "Platanus", "leaf_type": "", "source_id": "osm/node/3079331545", "source": "OpenStreetMap", "licence": "ODbL 1.0"}, "geometry": {"type": "Point", "coordinates": [-0.1278151, 51.5000221]}}, {"type": "Feature", "properties": {"height": 8, "species": "Platanus", "leaf_type": "", "source_id": "osm/node/3079331550", "source": "OpenStreetMap", "licence": "ODbL 1.0"}, "geometry": {"type": "Point", "coordinates": [-0.1275958, 51.5000817]}}, {"type": "Feature", "properties": {"height": 8, "species": "Platanus", "leaf_type": "", "source_id": "osm/node/3079331551", "source": "OpenStreetMap", "licence": "ODbL 1.0"}, "geometry": {"type": "Point", "coordinates": [-0.1272892, 51.5001105]}}, {"type": "Feature", "properties": {"height": 8, "species": "", "leaf_type": "", "source_id": "osm/node/3079331578", "source": "OpenStreetMap", "licence": "ODbL 1.0"}, "geometry": {"type": "Point", "coordinates": [-0.1272892, 51.5003941]}}, {"type": "Feature", "properties": {"height": 8, "species": "", "leaf_type": "", "source_id": "osm/node/3079331591", "source": "OpenStreetMap", "licence": "ODbL 1.0"}, "geometry": {"type": "Point", "coordinates": [-0.1272775, 51.5004886]}}, {"type": "Feature", "properties": {"height": 8, "species": "", "leaf_type": "", "source_id": "osm/node/3079331604", "source": "OpenStreetMap", "licence": "ODbL 1.0"}, "geometry": {"type": "Point", "coordinates": [-0.1272775, 51.5006194]}}, {"type": "Feature", "properties": {"height": 8, "species": "", "leaf_type": "", "source_id": "osm/node/3079331614", "source": "OpenStreetMap", "licence": "ODbL 1.0"}, "geometry": {"type": "Point", "coordinates": [-0.1271608, 51.5007067]}}, {"type": "Feature", "properties": {"height": 8, "species": "", "leaf_type": "", "source_id": "osm/node/3079331617", "source": "OpenStreetMap", "licence": "ODbL 1.0"}, "geometry": {"type": "Point", "coordinates": [-0.1251044, 51.5007803]}}, {"type": "Feature", "properties": {"height": 8, "species": "", "leaf_type": "", "source_id": "osm/node/3079331619", "source": "OpenStreetMap", "licence": "ODbL 1.0"}, "geometry": {"type": "Point", "coordinates": [-0.1273359, 51.5007648]}}, {"type": "Feature", "properties": {"height": 8, "species": "", "leaf_type": "", "source_id": "osm/node/3079331621", "source": "OpenStreetMap", "licence": "ODbL 1.0"}, "geometry": {"type": "Point", "coordinates": [-0.1249296, 51.5007733]}}, {"type": "Feature", "properties": {"height": 8, "species": "", "leaf_type": "", "source_id": "osm/node/3079331622", "source": "OpenStreetMap", "licence": "ODbL 1.0"}, "geometry": {"type": "Point", "coordinates": [-0.1252682, 51.5007869]}}, {"type": "Feature", "properties": {"height": 8, "species": "", "leaf_type": "", "source_id": "osm/node/3079331623", "source": "OpenStreetMap", "licence": "ODbL 1.0"}, "geometry": {"type": "Point", "coordinates": [-0.125599, 51.5008003]}}, {"type": "Feature", "properties": {"height": 8, "species": "", "leaf_type": "", "source_id": "osm/node/3079331624", "source": "OpenStreetMap", "licence": "ODbL 1.0"}, "geometry": {"type": "Point", "coordinates": [-0.1277639, 51.5007823]}}, {"type": "Feature", "properties": {"height": 8, "species": "", "leaf_type": "", "source_id": "osm/node/3079331625", "source": "OpenStreetMap", "licence": "ODbL 1.0"}, "geometry": {"type": "Point", "coordinates": [-0.1271257, 51.5007866]}}, {"type": "Feature", "properties": {"height": 8, "species": "", "leaf_type": "", "source_id": "osm/node/3079331626", "source": "OpenStreetMap", "licence": "ODbL 1.0"}, "geometry": {"type": "Point", "coordinates": [-0.1254354, 51.5007937]}}, {"type": "Feature", "properties": {"height": 8, "species": "", "leaf_type": "", "source_id": "osm/node/3079331740", "source": "OpenStreetMap", "licence": "ODbL 1.0"}, "geometry": {"type": "Point", "coordinates": [-0.1272775, 51.5008957]}}, {"type": "Feature", "properties": {"height": 8, "species": "", "leaf_type": "", "source_id": "osm/node/3079331742", "source": "OpenStreetMap", "licence": "ODbL 1.0"}, "geometry": {"type": "Point", "coordinates": [-0.1265293, 51.5008846]}}, {"type": "Feature", "properties": {"height": 8, "species": "", "leaf_type": "", "source_id": "osm/node/3079331743", "source": "OpenStreetMap", "licence": "ODbL 1.0"}, "geometry": {"type": "Point", "coordinates": [-0.1267403, 51.500903]}}, {"type": "Feature", "properties": {"height": 8, "species": "", "leaf_type": "", "source_id": "osm/node/3079331748", "source": "OpenStreetMap", "licence": "ODbL 1.0"}, "geometry": {"type": "Point", "coordinates": [-0.1277782, 51.5009247]}}, {"type": "Feature", "properties": {"height": 8, "species": "", "leaf_type": "", "source_id": "osm/node/3079331757", "source": "OpenStreetMap", "licence": "ODbL 1.0"}, "geometry": {"type": "Point", "coordinates": [-0.1277923, 51.5010914]}}, {"type": "Feature", "properties": {"height": 8, "species": "", "leaf_type": "", "source_id": "osm/node/3079331946", "source": "OpenStreetMap", "licence": "ODbL 1.0"}, "geometry": {"type": "Point", "coordinates": [-0.1240073, 51.5021035]}}, {"type": "Feature", "properties": {"height": 8, "species": "Platanus", "leaf_type": "broadleaved", "source_id": "osm/node/3079331950", "source": "OpenStreetMap", "licence": "ODbL 1.0"}, "geometry": {"type": "Point", "coordinates": [-0.1237271, 51.5021098]}}, {"type": "Feature", "properties": {"height": 8, "species": "", "leaf_type": "", "source_id": "osm/node/3079331969", "source": "OpenStreetMap", "licence": "ODbL 1.0"}, "geometry": {"type": "Point", "coordinates": [-0.1239607, 51.5022988]}}, {"type": "Feature", "properties": {"height": 8, "species": "Platanus", "leaf_type": "broadleaved", "source_id": "osm/node/3079331979", "source": "OpenStreetMap", "licence": "ODbL 1.0"}, "geometry": {"type": "Point", "coordinates": [-0.1235519, 51.502357]}}, {"type": "Feature", "properties": {"height": 8, "species": "", "leaf_type": "", "source_id": "osm/node/3079332031", "source": "OpenStreetMap", "licence": "ODbL 1.0"}, "geometry": {"type": "Point", "coordinates": [-0.123887, 51.5025328]}}, {"type": "Feature", "properties": {"height": 8, "species": "", "leaf_type": "", "source_id": "osm/node/3079332135", "source": "OpenStreetMap", "licence": "ODbL 1.0"}, "geometry": {"type": "Point", "coordinates": [-0.1235519, 51.5025388]}}, {"type": "Feature", "properties": {"height": 8, "species": "", "leaf_type": "", "source_id": "osm/node/3079332147", "source": "OpenStreetMap", "licence": "ODbL 1.0"}, "geometry": {"type": "Point", "coordinates": [-0.1258167, 51.5026259]}}, {"type": "Feature", "properties": {"height": 8, "species": "", "leaf_type": "", "source_id": "osm/node/3079332175", "source": "OpenStreetMap", "licence": "ODbL 1.0"}, "geometry": {"type": "Point", "coordinates": [-0.1234234, 51.5027205]}}, {"type": "Feature", "properties": {"height": 8, "species": "", "leaf_type": "", "source_id": "osm/node/3079332187", "source": "OpenStreetMap", "licence": "ODbL 1.0"}, "geometry": {"type": "Point", "coordinates": [-0.1238672, 51.5027641]}}, {"type": "Feature", "properties": {"height": 8, "species": "", "leaf_type": "", "source_id": "osm/node/3079332195", "source": "OpenStreetMap", "licence": "ODbL 1.0"}, "geometry": {"type": "Point", "coordinates": [-0.12582, 51.5027947]}}, {"type": "Feature", "properties": {"height": 8, "species": "", "leaf_type": "", "source_id": "osm/node/3079332215", "source": "OpenStreetMap", "licence": "ODbL 1.0"}, "geometry": {"type": "Point", "coordinates": [-0.1238556, 51.5029531]}}, {"type": "Feature", "properties": {"height": 8, "species": "", "leaf_type": "", "source_id": "osm/node/3079332220", "source": "OpenStreetMap", "licence": "ODbL 1.0"}, "geometry": {"type": "Point", "coordinates": [-0.1248483, 51.503004]}}, {"type": "Feature", "properties": {"height": 8, "species": "", "leaf_type": "", "source_id": "osm/node/3079332221", "source": "OpenStreetMap", "licence": "ODbL 1.0"}, "geometry": {"type": "Point", "coordinates": [-0.1258177, 51.5030113]}}, {"type": "Feature", "properties": {"height": 8, "species": "", "leaf_type": "", "source_id": "osm/node/3079332224", "source": "OpenStreetMap", "licence": "ODbL 1.0"}, "geometry": {"type": "Point", "coordinates": [-0.1254673, 51.5030258]}}, {"type": "Feature", "properties": {"height": 8, "species": "", "leaf_type": "", "source_id": "osm/node/3079332227", "source": "OpenStreetMap", "licence": "ODbL 1.0"}, "geometry": {"type": "Point", "coordinates": [-0.1234234, 51.5030404]}}, {"type": "Feature", "properties": {"height": 8, "species": "", "leaf_type": "", "source_id": "osm/node/3079332443", "source": "OpenStreetMap", "licence": "ODbL 1.0"}, "geometry": {"type": "Point", "coordinates": [-0.1242176, 51.5032076]}}, {"type": "Feature", "properties": {"height": 8, "species": "", "leaf_type": "", "source_id": "osm/node/3079332446", "source": "OpenStreetMap", "licence": "ODbL 1.0"}, "geometry": {"type": "Point", "coordinates": [-0.1234001, 51.5032294]}}, {"type": "Feature", "properties": {"height": 8, "species": "", "leaf_type": "", "source_id": "osm/node/3079332453", "source": "OpenStreetMap", "licence": "ODbL 1.0"}, "geometry": {"type": "Point", "coordinates": [-0.1256658, 51.503273]}}, {"type": "Feature", "properties": {"height": 8, "species": "", "leaf_type": "", "source_id": "osm/node/3079332458", "source": "OpenStreetMap", "licence": "ODbL 1.0"}, "geometry": {"type": "Point", "coordinates": [-0.1237621, 51.5033021]}}, {"type": "Feature", "properties": {"height": 8, "species": "", "leaf_type": "", "source_id": "osm/node/3079332461", "source": "OpenStreetMap", "licence": "ODbL 1.0"}, "geometry": {"type": "Point", "coordinates": [-0.1235385, 51.5033344]}}, {"type": "Feature", "properties": {"height": 8, "species": "", "leaf_type": "", "source_id": "osm/node/3079332468", "source": "OpenStreetMap", "licence": "ODbL 1.0"}, "geometry": {"type": "Point", "coordinates": [-0.1233417, 51.5034039]}}, {"type": "Feature", "properties": {"height": 8, "species": "", "leaf_type": "", "source_id": "osm/node/3079332493", "source": "OpenStreetMap", "licence": "ODbL 1.0"}, "geometry": {"type": "Point", "coordinates": [-0.1236531, 51.5035929]}}, {"type": "Feature", "properties": {"height": 8, "species": "", "leaf_type": "", "source_id": "osm/node/3079332496", "source": "OpenStreetMap", "licence": "ODbL 1.0"}, "geometry": {"type": "Point", "coordinates": [-0.1232599, 51.5036074]}}, {"type": "Feature", "properties": {"height": 8, "species": "", "leaf_type": "", "source_id": "osm/node/3079332500", "source": "OpenStreetMap", "licence": "ODbL 1.0"}, "geometry": {"type": "Point", "coordinates": [-0.1256308, 51.503622]}}, {"type": "Feature", "properties": {"height": 8, "species": "", "leaf_type": "", "source_id": "osm/node/3079332507", "source": "OpenStreetMap", "licence": "ODbL 1.0"}, "geometry": {"type": "Point", "coordinates": [-0.1234423, 51.5036681]}}, {"type": "Feature", "properties": {"height": 8, "species": "", "leaf_type": "", "source_id": "osm/node/3079332518", "source": "OpenStreetMap", "licence": "ODbL 1.0"}, "geometry": {"type": "Point", "coordinates": [-0.1232249, 51.5037383]}}, {"type": "Feature", "properties": {"height": 8, "species": "", "leaf_type": "", "source_id": "osm/node/3079332529", "source": "OpenStreetMap", "licence": "ODbL 1.0"}, "geometry": {"type": "Point", "coordinates": [-0.125964, 51.5038596]}}, {"type": "Feature", "properties": {"height": 8, "species": "", "leaf_type": "", "source_id": "osm/node/3079332532", "source": "OpenStreetMap", "licence": "ODbL 1.0"}, "geometry": {"type": "Point", "coordinates": [-0.1236103, 51.5038183]}}, {"type": "Feature", "properties": {"height": 8, "species": "", "leaf_type": "", "source_id": "osm/node/3079332738", "source": "OpenStreetMap", "licence": "ODbL 1.0"}, "geometry": {"type": "Point", "coordinates": [-0.123914, 51.5038328]}}, {"type": "Feature", "properties": {"height": 8, "species": "", "leaf_type": "", "source_id": "osm/node/3079332743", "source": "OpenStreetMap", "licence": "ODbL 1.0"}, "geometry": {"type": "Point", "coordinates": [-0.1256897, 51.5038611]}}, {"type": "Feature", "properties": {"height": 8, "species": "", "leaf_type": "", "source_id": "osm/node/3079332753", "source": "OpenStreetMap", "licence": "ODbL 1.0"}, "geometry": {"type": "Point", "coordinates": [-0.1240541, 51.5039055]}}, {"type": "Feature", "properties": {"height": 8, "species": "", "leaf_type": "", "source_id": "osm/node/3079332754", "source": "OpenStreetMap", "licence": "ODbL 1.0"}, "geometry": {"type": "Point", "coordinates": [-0.1237972, 51.5039128]}}, {"type": "Feature", "properties": {"height": 8, "species": "", "leaf_type": "", "source_id": "osm/node/3079332764", "source": "OpenStreetMap", "licence": "ODbL 1.0"}, "geometry": {"type": "Point", "coordinates": [-0.1233631, 51.5039705]}}, {"type": "Feature", "properties": {"height": 8, "species": "", "leaf_type": "", "source_id": "osm/node/3079332771", "source": "OpenStreetMap", "licence": "ODbL 1.0"}, "geometry": {"type": "Point", "coordinates": [-0.1231548, 51.5040145]}}, {"type": "Feature", "properties": {"height": 8, "species": "", "leaf_type": "", "source_id": "osm/node/3079332776", "source": "OpenStreetMap", "licence": "ODbL 1.0"}, "geometry": {"type": "Point", "coordinates": [-0.1260045, 51.5040436]}}, {"type": "Feature", "properties": {"height": 8, "species": "Platanus", "leaf_type": "", "source_id": "osm/node/3079332781", "source": "OpenStreetMap", "licence": "ODbL 1.0"}, "geometry": {"type": "Point", "coordinates": [-0.1264012, 51.5040838]}}, {"type": "Feature", "properties": {"height": 8, "species": "", "leaf_type": "", "source_id": "osm/node/3079332783", "source": "OpenStreetMap", "licence": "ODbL 1.0"}, "geometry": {"type": "Point", "coordinates": [-0.1235636, 51.5040727]}}, {"type": "Feature", "properties": {"height": 8, "species": "", "leaf_type": "", "source_id": "osm/node/3079332801", "source": "OpenStreetMap", "licence": "ODbL 1.0"}, "geometry": {"type": "Point", "coordinates": [-0.1233976, 51.5042614]}}, {"type": "Feature", "properties": {"height": 8, "species": "", "leaf_type": "", "source_id": "osm/node/3079332810", "source": "OpenStreetMap", "licence": "ODbL 1.0"}, "geometry": {"type": "Point", "coordinates": [-0.1230847, 51.5042763]}}, {"type": "Feature", "properties": {"height": 8, "species": "", "leaf_type": "", "source_id": "osm/node/3079332812", "source": "OpenStreetMap", "licence": "ODbL 1.0"}, "geometry": {"type": "Point", "coordinates": [-0.1235052, 51.5042835]}}, {"type": "Feature", "properties": {"height": 8, "species": "", "leaf_type": "", "source_id": "osm/node/3079332814", "source": "OpenStreetMap", "licence": "ODbL 1.0"}, "geometry": {"type": "Point", "coordinates": [-0.1260396, 51.5042981]}}, {"type": "Feature", "properties": {"height": 8, "species": "Platanus", "leaf_type": "", "source_id": "osm/node/3079332822", "source": "OpenStreetMap", "licence": "ODbL 1.0"}, "geometry": {"type": "Point", "coordinates": [-0.12646, 51.5044071]}}, {"type": "Feature", "properties": {"height": 8, "species": "", "leaf_type": "", "source_id": "osm/node/3079332828", "source": "OpenStreetMap", "licence": "ODbL 1.0"}, "geometry": {"type": "Point", "coordinates": [-0.1230731, 51.504458]}}, {"type": "Feature", "properties": {"height": 8, "species": "", "leaf_type": "", "source_id": "osm/node/3079332837", "source": "OpenStreetMap", "licence": "ODbL 1.0"}, "geometry": {"type": "Point", "coordinates": [-0.1234468, 51.5044871]}}, {"type": "Feature", "properties": {"height": 8, "species": "", "leaf_type": "", "source_id": "osm/node/3079332838", "source": "OpenStreetMap", "licence": "ODbL 1.0"}, "geometry": {"type": "Point", "coordinates": [-0.123657, 51.5044871]}}, {"type": "Feature", "properties": {"height": 8, "species": "", "leaf_type": "", "source_id": "osm/node/3079332839", "source": "OpenStreetMap", "licence": "ODbL 1.0"}, "geometry": {"type": "Point", "coordinates": [-0.1233149, 51.5045269]}}, {"type": "Feature", "properties": {"height": 8, "species": "", "leaf_type": "", "source_id": "osm/node/3079332840", "source": "OpenStreetMap", "licence": "ODbL 1.0"}, "geometry": {"type": "Point", "coordinates": [-0.1261447, 51.5044943]}}, {"type": "Feature", "properties": {"height": 8, "species": "", "leaf_type": "", "source_id": "osm/node/3079332862", "source": "OpenStreetMap", "licence": "ODbL 1.0"}, "geometry": {"type": "Point", "coordinates": [-0.1229225, 51.5047093]}}, {"type": "Feature", "properties": {"height": 8, "species": "", "leaf_type": "", "source_id": "osm/node/3079332880", "source": "OpenStreetMap", "licence": "ODbL 1.0"}, "geometry": {"type": "Point", "coordinates": [-0.1234315, 51.5048034]}}, {"type": "Feature", "properties": {"height": 8, "species": "", "leaf_type": "", "source_id": "osm/node/3079332886", "source": "OpenStreetMap", "licence": "ODbL 1.0"}, "geometry": {"type": "Point", "coordinates": [-0.1236495, 51.5048316]}}, {"type": "Feature", "properties": {"height": 8, "species": "", "leaf_type": "", "source_id": "osm/node/3079332891", "source": "OpenStreetMap", "licence": "ODbL 1.0"}, "geometry": {"type": "Point", "coordinates": [-0.1228775, 51.5048429]}}, {"type": "Feature", "properties": {"height": 8, "species": "", "leaf_type": "", "source_id": "osm/node/3079332895", "source": "OpenStreetMap", "licence": "ODbL 1.0"}, "geometry": {"type": "Point", "coordinates": [-0.1232498, 51.5048825]}}, {"type": "Feature", "properties": {"height": 8, "species": "", "leaf_type": "", "source_id": "osm/node/3079332920", "source": "OpenStreetMap", "licence": "ODbL 1.0"}, "geometry": {"type": "Point", "coordinates": [-0.1232135, 51.5050747]}}, {"type": "Feature", "properties": {"height": 8, "species": "", "leaf_type": "", "source_id": "osm/node/3079332921", "source": "OpenStreetMap", "licence": "ODbL 1.0"}, "geometry": {"type": "Point", "coordinates": [-0.1236858, 51.5050917]}}, {"type": "Feature", "properties": {"height": 8, "species": "", "leaf_type": "", "source_id": "osm/node/3079332922", "source": "OpenStreetMap", "licence": "ODbL 1.0"}, "geometry": {"type": "Point", "coordinates": [-0.1228502, 51.505103]}}, {"type": "Feature", "properties": {"height": 8, "species": "", "leaf_type": "", "source_id": "osm/node/3079332932", "source": "OpenStreetMap", "licence": "ODbL 1.0"}, "geometry": {"type": "Point", "coordinates": [-0.1231863, 51.5051821]}}, {"type": "Feature", "properties": {"height": 8, "species": "", "leaf_type": "", "source_id": "osm/node/3079332939", "source": "OpenStreetMap", "licence": "ODbL 1.0"}, "geometry": {"type": "Point", "coordinates": [-0.1236676, 51.5052273]}}, {"type": "Feature", "properties": {"height": 8, "species": "", "leaf_type": "", "source_id": "osm/node/3079332947", "source": "OpenStreetMap", "licence": "ODbL 1.0"}, "geometry": {"type": "Point", "coordinates": [-0.1227435, 51.5052908]}}, {"type": "Feature", "properties": {"height": 8, "species": "", "leaf_type": "", "source_id": "osm/node/3079332964", "source": "OpenStreetMap", "licence": "ODbL 1.0"}, "geometry": {"type": "Point", "coordinates": [-0.1230954, 51.5054196]}}, {"type": "Feature", "properties": {"height": 8, "species": "", "leaf_type": "", "source_id": "osm/node/3079332969", "source": "OpenStreetMap", "licence": "ODbL 1.0"}, "geometry": {"type": "Point", "coordinates": [-0.1226958, 51.5054704]}}, {"type": "Feature", "properties": {"height": 8, "species": "Platanus", "leaf_type": "", "source_id": "osm/node/3079332979", "source": "OpenStreetMap", "licence": "ODbL 1.0"}, "geometry": {"type": "Point", "coordinates": [-0.1268921, 51.505563]}}, {"type": "Feature", "properties": {"height": 8, "species": "", "leaf_type": "", "source_id": "osm/node/3079332982", "source": "OpenStreetMap", "licence": "ODbL 1.0"}, "geometry": {"type": "Point", "coordinates": [-0.1230319, 51.5055778]}}, {"type": "Feature", "properties": {"height": 8, "species": "", "leaf_type": "", "source_id": "osm/node/3079332990", "source": "OpenStreetMap", "licence": "ODbL 1.0"}, "geometry": {"type": "Point", "coordinates": [-0.1225777, 51.5056909]}}, {"type": "Feature", "properties": {"height": 8, "species": "", "leaf_type": "", "source_id": "osm/node/3079332993", "source": "OpenStreetMap", "licence": "ODbL 1.0"}, "geometry": {"type": "Point", "coordinates": [-0.1229774, 51.5056966]}}, {"type": "Feature", "properties": {"height": 8, "species": "", "leaf_type": "", "source_id": "osm/node/3079333004", "source": "OpenStreetMap", "licence": "ODbL 1.0"}, "geometry": {"type": "Point", "coordinates": [-0.1229592, 51.5058322]}}, {"type": "Feature", "properties": {"height": 8, "species": "", "leaf_type": "", "source_id": "osm/node/3079333008", "source": "OpenStreetMap", "licence": "ODbL 1.0"}, "geometry": {"type": "Point", "coordinates": [-0.1234224, 51.5058492]}}, {"type": "Feature", "properties": {"height": 8, "species": "", "leaf_type": "", "source_id": "osm/node/3079333015", "source": "OpenStreetMap", "licence": "ODbL 1.0"}, "geometry": {"type": "Point", "coordinates": [-0.123014, 51.5059327]}}, {"type": "Feature", "properties": {"height": 8, "species": "", "leaf_type": "", "source_id": "osm/node/3079333016", "source": "OpenStreetMap", "licence": "ODbL 1.0"}, "geometry": {"type": "Point", "coordinates": [-0.1233618, 51.5060193]}}, {"type": "Feature", "properties": {"height": 8, "species": "", "leaf_type": "", "source_id": "osm/node/3079333020", "source": "OpenStreetMap", "licence": "ODbL 1.0"}, "geometry": {"type": "Point", "coordinates": [-0.1224869, 51.5059792]}}, {"type": "Feature", "properties": {"height": 8, "species": "", "leaf_type": "", "source_id": "osm/node/3079333036", "source": "OpenStreetMap", "licence": "ODbL 1.0"}, "geometry": {"type": "Point", "coordinates": [-0.1232988, 51.506121]}}, {"type": "Feature", "properties": {"height": 8, "species": "", "leaf_type": "", "source_id": "osm/node/3079333051", "source": "OpenStreetMap", "licence": "ODbL 1.0"}, "geometry": {"type": "Point", "coordinates": [-0.1227776, 51.5062053]}}, {"type": "Feature", "properties": {"height": 8, "species": "", "leaf_type": "", "source_id": "osm/node/3079333056", "source": "OpenStreetMap", "licence": "ODbL 1.0"}, "geometry": {"type": "Point", "coordinates": [-0.1230319, 51.5062393]}}, {"type": "Feature", "properties": {"height": 8, "species": "", "leaf_type": "", "source_id": "osm/node/3079333060", "source": "OpenStreetMap", "licence": "ODbL 1.0"}, "geometry": {"type": "Point", "coordinates": [-0.1231772, 51.5062619]}}, {"type": "Feature", "properties": {"height": 8, "species": "", "leaf_type": "", "source_id": "osm/node/3079333070", "source": "OpenStreetMap", "licence": "ODbL 1.0"}, "geometry": {"type": "Point", "coordinates": [-0.1233043, 51.5063806]}}, {"type": "Feature", "properties": {"height": 8, "species": "", "leaf_type": "", "source_id": "osm/node/3079333076", "source": "OpenStreetMap", "licence": "ODbL 1.0"}, "geometry": {"type": "Point", "coordinates": [-0.1228865, 51.5064089]}}, {"type": "Feature", "properties": {"height": 8, "species": "", "leaf_type": "", "source_id": "osm/node/3079333083", "source": "OpenStreetMap", "licence": "ODbL 1.0"}, "geometry": {"type": "Point", "coordinates": [-0.1230319, 51.506471]}}, {"type": "Feature", "properties": {"height": 8, "species": "", "leaf_type": "", "source_id": "osm/node/3079333098", "source": "OpenStreetMap", "licence": "ODbL 1.0"}, "geometry": {"type": "Point", "coordinates": [-0.1229438, 51.506757]}}, {"type": "Feature", "properties": {"height": 8, "species": "", "leaf_type": "", "source_id": "osm/node/3079333100", "source": "OpenStreetMap", "licence": "ODbL 1.0"}, "geometry": {"type": "Point", "coordinates": [-0.1228161, 51.5067624]}}, {"type": "Feature", "properties": {"height": 8, "species": "", "leaf_type": "", "source_id": "osm/node/3079333108", "source": "OpenStreetMap", "licence": "ODbL 1.0"}, "geometry": {"type": "Point", "coordinates": [-0.1234954, 51.5067781]}}, {"type": "Feature", "properties": {"height": 8, "species": "", "leaf_type": "", "source_id": "osm/node/3079333112", "source": "OpenStreetMap", "licence": "ODbL 1.0"}, "geometry": {"type": "Point", "coordinates": [-0.1240218, 51.5068724]}}, {"type": "Feature", "properties": {"height": 8, "species": "", "leaf_type": "", "source_id": "osm/node/3079333113", "source": "OpenStreetMap", "licence": "ODbL 1.0"}, "geometry": {"type": "Point", "coordinates": [-0.1241944, 51.5068724]}}, {"type": "Feature", "properties": {"height": 8, "species": "", "leaf_type": "", "source_id": "osm/node/3079333119", "source": "OpenStreetMap", "licence": "ODbL 1.0"}, "geometry": {"type": "Point", "coordinates": [-0.124485, 51.5069007]}}, {"type": "Feature", "properties": {"height": 8, "species": "", "leaf_type": "", "source_id": "osm/node/3079333131", "source": "OpenStreetMap", "licence": "ODbL 1.0"}, "geometry": {"type": "Point", "coordinates": [-0.1247121, 51.5069742]}}, {"type": "Feature", "properties": {"height": 8, "species": "", "leaf_type": "", "source_id": "osm/node/3079333138", "source": "OpenStreetMap", "licence": "ODbL 1.0"}, "geometry": {"type": "Point", "coordinates": [-0.124921, 51.5070194]}}, {"type": "Feature", "properties": {"height": 8, "species": "", "leaf_type": "", "source_id": "osm/node/3079333142", "source": "OpenStreetMap", "licence": "ODbL 1.0"}, "geometry": {"type": "Point", "coordinates": [-0.1251299, 51.5070646]}}, {"type": "Feature", "properties": {"height": 8, "species": "", "leaf_type": "", "source_id": "osm/node/3079333150", "source": "OpenStreetMap", "licence": "ODbL 1.0"}, "geometry": {"type": "Point", "coordinates": [-0.1220146, 51.5071098]}}, {"type": "Feature", "properties": {"height": 8, "species": "", "leaf_type": "", "source_id": "osm/node/3079333155", "source": "OpenStreetMap", "licence": "ODbL 1.0"}, "geometry": {"type": "Point", "coordinates": [-0.1258535, 51.5071795]}}, {"type": "Feature", "properties": {"height": 8, "species": "", "leaf_type": "", "source_id": "osm/node/3079333157", "source": "OpenStreetMap", "licence": "ODbL 1.0"}, "geometry": {"type": "Point", "coordinates": [-0.1255009, 51.5072011]}}, {"type": "Feature", "properties": {"height": 8, "species": "", "leaf_type": "", "source_id": "osm/node/3079333159", "source": "OpenStreetMap", "licence": "ODbL 1.0"}, "geometry": {"type": "Point", "coordinates": [-0.1261154, 51.5072459]}}, {"type": "Feature", "properties": {"height": 8, "species": "", "leaf_type": "", "source_id": "osm/node/3079333162", "source": "OpenStreetMap", "licence": "ODbL 1.0"}, "geometry": {"type": "Point", "coordinates": [-0.1254296, 51.5072681]}}, {"type": "Feature", "properties": {"height": 8, "species": "", "leaf_type": "", "source_id": "osm/node/3079333166", "source": "OpenStreetMap", "licence": "ODbL 1.0"}, "geometry": {"type": "Point", "coordinates": [-0.126319, 51.5072942]}}, {"type": "Feature", "properties": {"height": 8, "species": "", "leaf_type": "", "source_id": "osm/node/3079333170", "source": "OpenStreetMap", "licence": "ODbL 1.0"}, "geometry": {"type": "Point", "coordinates": [-0.1265033, 51.5073304]}}, {"type": "Feature", "properties": {"height": 8, "species": "", "leaf_type": "", "source_id": "osm/node/3079333174", "source": "OpenStreetMap", "licence": "ODbL 1.0"}, "geometry": {"type": "Point", "coordinates": [-0.1267264, 51.5073667]}}, {"type": "Feature", "properties": {"height": 8, "species": "", "leaf_type": "", "source_id": "osm/node/3079333176", "source": "OpenStreetMap", "licence": "ODbL 1.0"}, "geometry": {"type": "Point", "coordinates": [-0.1268816, 51.5073968]}}, {"type": "Feature", "properties": {"height": 8, "species": "", "leaf_type": "", "source_id": "osm/node/3079333184", "source": "OpenStreetMap", "licence": "ODbL 1.0"}, "geometry": {"type": "Point", "coordinates": [-0.1220216, 51.5075049]}}, {"type": "Feature", "properties": {"height": 8, "species": "", "leaf_type": "", "source_id": "osm/node/3079333185", "source": "OpenStreetMap", "licence": "ODbL 1.0"}, "geometry": {"type": "Point", "coordinates": [-0.122605, 51.5075451]}}, {"type": "Feature", "properties": {"height": 8, "species": "", "leaf_type": "", "source_id": "osm/node/3079333188", "source": "OpenStreetMap", "licence": "ODbL 1.0"}, "geometry": {"type": "Point", "coordinates": [-0.1213516, 51.507579]}}, {"type": "Feature", "properties": {"height": 8, "species": "", "leaf_type": "", "source_id": "osm/node/3079333192", "source": "OpenStreetMap", "licence": "ODbL 1.0"}, "geometry": {"type": "Point", "coordinates": [-0.1217108, 51.5076543]}}, {"type": "Feature", "properties": {"height": 8, "species": "", "leaf_type": "", "source_id": "osm/node/3079333194", "source": "OpenStreetMap", "licence": "ODbL 1.0"}, "geometry": {"type": "Point", "coordinates": [-0.1212699, 51.5076638]}}, {"type": "Feature", "properties": {"height": 8, "species": "", "leaf_type": "", "source_id": "osm/node/3079333198", "source": "OpenStreetMap", "licence": "ODbL 1.0"}, "geometry": {"type": "Point", "coordinates": [-0.122058, 51.5077431]}}, {"type": "Feature", "properties": {"height": 8, "species": "", "leaf_type": "", "source_id": "osm/node/3079333199", "source": "OpenStreetMap", "licence": "ODbL 1.0"}, "geometry": {"type": "Point", "coordinates": [-0.1221327, 51.5077938]}}, {"type": "Feature", "properties": {"height": 8, "species": "", "leaf_type": "", "source_id": "osm/node/3079333201", "source": "OpenStreetMap", "licence": "ODbL 1.0"}, "geometry": {"type": "Point", "coordinates": [-0.122941, 51.5078108]}}, {"type": "Feature", "properties": {"height": 8, "species": "", "leaf_type": "", "source_id": "osm/node/3079333205", "source": "OpenStreetMap", "licence": "ODbL 1.0"}, "geometry": {"type": "Point", "coordinates": [-0.1215643, 51.5079069]}}, {"type": "Feature", "properties": {"height": 8, "species": "", "leaf_type": "", "source_id": "osm/node/3079333206", "source": "OpenStreetMap", "licence": "ODbL 1.0"}, "geometry": {"type": "Point", "coordinates": [-0.1211782, 51.5079152]}}, {"type": "Feature", "properties": {"height": 8, "species": "", "leaf_type": "", "source_id": "osm/node/3079333208", "source": "OpenStreetMap", "licence": "ODbL 1.0"}, "geometry": {"type": "Point", "coordinates": [-0.1271878, 51.5079462]}}, {"type": "Feature", "properties": {"height": 8, "species": "", "leaf_type": "", "source_id": "osm/node/3079333209", "source": "OpenStreetMap", "licence": "ODbL 1.0"}, "geometry": {"type": "Point", "coordinates": [-0.1210517, 51.5079608]}}, {"type": "Feature", "properties": {"height": 8, "species": "", "leaf_type": "", "source_id": "osm/node/3079333211", "source": "OpenStreetMap", "licence": "ODbL 1.0"}, "geometry": {"type": "Point", "coordinates": [-0.1231089, 51.5079981]}}, {"type": "Feature", "properties": {"height": 8, "species": "", "leaf_type": "", "source_id": "osm/node/5287535077", "source": "OpenStreetMap", "licence": "ODbL 1.0"}, "geometry": {"type": "Point", "coordinates": [-0.1258828, 51.5023699]}}, {"type": "Feature", "properties": {"height": 8, "species": "", "leaf_type": "", "source_id": "osm/node/5287920880", "source": "OpenStreetMap", "licence": "ODbL 1.0"}, "geometry": {"type": "Point", "coordinates": [-0.1258164, 51.5032448]}}, {"type": "Feature", "properties": {"height": 8, "species": "", "leaf_type": "", "source_id": "osm/node/5287924560", "source": "OpenStreetMap", "licence": "ODbL 1.0"}, "geometry": {"type": "Point", "coordinates": [-0.1258177, 51.5032962]}}, {"type": "Feature", "properties": {"height": 8, "species": "", "leaf_type": "", "source_id": "osm/node/5320859265", "source": "OpenStreetMap", "licence": "ODbL 1.0"}, "geometry": {"type": "Point", "coordinates": [-0.1264742, 51.507179]}}, {"type": "Feature", "properties": {"height": 8, "species": "", "leaf_type": "", "source_id": "osm/node/5320859268", "source": "OpenStreetMap", "licence": "ODbL 1.0"}, "geometry": {"type": "Point", "coordinates": [-0.1270623, 51.5072746]}}, {"type": "Feature", "properties": {"height": 8, "species": "", "leaf_type": "", "source_id": "osm/node/5320859269", "source": "OpenStreetMap", "licence": "ODbL 1.0"}, "geometry": {"type": "Point", "coordinates": [-0.1269034, 51.5072517]}}, {"type": "Feature", "properties": {"height": 8, "species": "", "leaf_type": "", "source_id": "osm/node/5323722165", "source": "OpenStreetMap", "licence": "ODbL 1.0"}, "geometry": {"type": "Point", "coordinates": [-0.1254791, 51.5070025]}}, {"type": "Feature", "properties": {"height": 8, "species": "", "leaf_type": "", "source_id": "osm/node/5323722166", "source": "OpenStreetMap", "licence": "ODbL 1.0"}, "geometry": {"type": "Point", "coordinates": [-0.1251928, 51.5069503]}}, {"type": "Feature", "properties": {"height": 8, "species": "", "leaf_type": "", "source_id": "osm/node/5323722167", "source": "OpenStreetMap", "licence": "ODbL 1.0"}, "geometry": {"type": "Point", "coordinates": [-0.1250526, 51.5069253]}}, {"type": "Feature", "properties": {"height": 8, "species": "", "leaf_type": "", "source_id": "osm/node/7873131408", "source": "OpenStreetMap", "licence": "ODbL 1.0"}, "geometry": {"type": "Point", "coordinates": [-0.1217398, 51.5074817]}}, {"type": "Feature", "properties": {"height": 8, "species": "", "leaf_type": "", "source_id": "osm/node/8263150518", "source": "OpenStreetMap", "licence": "ODbL 1.0"}, "geometry": {"type": "Point", "coordinates": [-0.1229697, 51.5046155]}}, {"type": "Feature", "properties": {"height": 8, "species": "", "leaf_type": "broadleaved", "source_id": "osm/node/8785162087", "source": "OpenStreetMap", "licence": "ODbL 1.0"}, "geometry": {"type": "Point", "coordinates": [-0.1277629, 51.5012102]}}, {"type": "Feature", "properties": {"height": 8, "species": "", "leaf_type": "", "source_id": "osm/node/11775781039", "source": "OpenStreetMap", "licence": "ODbL 1.0"}, "geometry": {"type": "Point", "coordinates": [-0.1240091, 51.5006723]}}, {"type": "Feature", "properties": {"height": 8, "species": "", "leaf_type": "", "source_id": "osm/node/11775781040", "source": "OpenStreetMap", "licence": "ODbL 1.0"}, "geometry": {"type": "Point", "coordinates": [-0.1267025, 51.4988962]}}, {"type": "Feature", "properties": {"height": 8, "species": "", "leaf_type": "", "source_id": "osm/node/11775781041", "source": "OpenStreetMap", "licence": "ODbL 1.0"}, "geometry": {"type": "Point", "coordinates": [-0.1266372, 51.4986478]}}, {"type": "Feature", "properties": {"height": 8, "species": "", "leaf_type": "", "source_id": "osm/node/11775781042", "source": "OpenStreetMap", "licence": "ODbL 1.0"}, "geometry": {"type": "Point", "coordinates": [-0.1266355, 51.4988231]}}, {"type": "Feature", "properties": {"height": 8, "species": "", "leaf_type": "", "source_id": "osm/node/11775781043", "source": "OpenStreetMap", "licence": "ODbL 1.0"}, "geometry": {"type": "Point", "coordinates": [-0.1264578, 51.4989484]}}, {"type": "Feature", "properties": {"height": 8, "species": "", "leaf_type": "", "source_id": "osm/node/11775781171", "source": "OpenStreetMap", "licence": "ODbL 1.0"}, "geometry": {"type": "Point", "coordinates": [-0.1241595, 51.5032716]}}, {"type": "Feature", "properties": {"height": 8, "species": "", "leaf_type": "", "source_id": "osm/node/11775781172", "source": "OpenStreetMap", "licence": "ODbL 1.0"}, "geometry": {"type": "Point", "coordinates": [-0.124706, 51.5030326]}}, {"type": "Feature", "properties": {"height": 8, "species": "", "leaf_type": "", "source_id": "osm/node/11775781173", "source": "OpenStreetMap", "licence": "ODbL 1.0"}, "geometry": {"type": "Point", "coordinates": [-0.1238068, 51.5028708]}}, {"type": "Feature", "properties": {"height": 8, "species": "", "leaf_type": "", "source_id": "osm/node/11775781174", "source": "OpenStreetMap", "licence": "ODbL 1.0"}, "geometry": {"type": "Point", "coordinates": [-0.1234738, 51.5026705]}}, {"type": "Feature", "properties": {"height": 8, "species": "Platanus", "leaf_type": "broadleaved", "source_id": "osm/node/11775781175", "source": "OpenStreetMap", "licence": "ODbL 1.0"}, "geometry": {"type": "Point", "coordinates": [-0.1235158, 51.5024712]}}, {"type": "Feature", "properties": {"height": 8, "species": "Platanus", "leaf_type": "broadleaved", "source_id": "osm/node/11775781176", "source": "OpenStreetMap", "licence": "ODbL 1.0"}, "geometry": {"type": "Point", "coordinates": [-0.1235996, 51.5022667]}}, {"type": "Feature", "properties": {"height": 8, "species": "", "leaf_type": "", "source_id": "osm/node/11775781177", "source": "OpenStreetMap", "licence": "ODbL 1.0"}, "geometry": {"type": "Point", "coordinates": [-0.1239851, 51.5021999]}}, {"type": "Feature", "properties": {"height": 8, "species": "Platanus", "leaf_type": "broadleaved", "source_id": "osm/node/11775781178", "source": "OpenStreetMap", "licence": "ODbL 1.0"}, "geometry": {"type": "Point", "coordinates": [-0.1236214, 51.502155]}}, {"type": "Feature", "properties": {"height": 8, "species": "Platanus", "leaf_type": "broadleaved", "source_id": "osm/node/11775781179", "source": "OpenStreetMap", "licence": "ODbL 1.0"}, "geometry": {"type": "Point", "coordinates": [-0.1236214, 51.5020131]}}, {"type": "Feature", "properties": {"height": 8, "species": "Platanus", "leaf_type": "broadleaved", "source_id": "osm/node/11775781180", "source": "OpenStreetMap", "licence": "ODbL 1.0"}, "geometry": {"type": "Point", "coordinates": [-0.1237521, 51.5019797]}}, {"type": "Feature", "properties": {"height": 8, "species": "Platanus", "leaf_type": "broadleaved", "source_id": "osm/node/11775781181", "source": "OpenStreetMap", "licence": "ODbL 1.0"}, "geometry": {"type": "Point", "coordinates": [-0.1236264, 51.5018983]}}, {"type": "Feature", "properties": {"height": 8, "species": "", "leaf_type": "", "source_id": "osm/node/11775781182", "source": "OpenStreetMap", "licence": "ODbL 1.0"}, "geometry": {"type": "Point", "coordinates": [-0.1236482, 51.5017501]}}, {"type": "Feature", "properties": {"height": 8, "species": "", "leaf_type": "", "source_id": "osm/node/11775781183", "source": "OpenStreetMap", "licence": "ODbL 1.0"}, "geometry": {"type": "Point", "coordinates": [-0.1240914, 51.5017676]}}, {"type": "Feature", "properties": {"height": 8, "species": "", "leaf_type": "", "source_id": "osm/node/11775781184", "source": "OpenStreetMap", "licence": "ODbL 1.0"}, "geometry": {"type": "Point", "coordinates": [-0.1241092, 51.501628]}}, {"type": "Feature", "properties": {"height": 8, "species": "", "leaf_type": "", "source_id": "osm/node/11775781185", "source": "OpenStreetMap", "licence": "ODbL 1.0"}, "geometry": {"type": "Point", "coordinates": [-0.1241192, 51.5015435]}}, {"type": "Feature", "properties": {"height": 8, "species": "", "leaf_type": "", "source_id": "osm/node/11775781186", "source": "OpenStreetMap", "licence": "ODbL 1.0"}, "geometry": {"type": "Point", "coordinates": [-0.1237236, 51.5013839]}}, {"type": "Feature", "properties": {"height": 8, "species": "", "leaf_type": "", "source_id": "osm/node/11775781187", "source": "OpenStreetMap", "licence": "ODbL 1.0"}, "geometry": {"type": "Point", "coordinates": [-0.1237219, 51.5013212]}}, {"type": "Feature", "properties": {"height": 8, "species": "", "leaf_type": "", "source_id": "osm/node/11775781188", "source": "OpenStreetMap", "licence": "ODbL 1.0"}, "geometry": {"type": "Point", "coordinates": [-0.1250329, 51.5020719]}}, {"type": "Feature", "properties": {"height": 8, "species": "", "leaf_type": "", "source_id": "osm/node/11775781189", "source": "OpenStreetMap", "licence": "ODbL 1.0"}, "geometry": {"type": "Point", "coordinates": [-0.1251217, 51.5020594]}}, {"type": "Feature", "properties": {"height": 8, "species": "", "leaf_type": "", "source_id": "osm/node/11775781190", "source": "OpenStreetMap", "licence": "ODbL 1.0"}, "geometry": {"type": "Point", "coordinates": [-0.1258124, 51.5027085]}}, {"type": "Feature", "properties": {"height": 8, "species": "", "leaf_type": "", "source_id": "osm/node/11775781191", "source": "OpenStreetMap", "licence": "ODbL 1.0"}, "geometry": {"type": "Point", "coordinates": [-0.1255023, 51.5032793]}}, {"type": "Feature", "properties": {"height": 8, "species": "", "leaf_type": "", "source_id": "osm/node/11775781194", "source": "OpenStreetMap", "licence": "ODbL 1.0"}, "geometry": {"type": "Point", "coordinates": [-0.1255743, 51.5044803]}}, {"type": "Feature", "properties": {"height": 8, "species": "", "leaf_type": "", "source_id": "osm/node/11775781205", "source": "OpenStreetMap", "licence": "ODbL 1.0"}, "geometry": {"type": "Point", "coordinates": [-0.1237588, 51.505173]}}, {"type": "Feature", "properties": {"height": 8, "species": "", "leaf_type": "", "source_id": "osm/node/11775781206", "source": "OpenStreetMap", "licence": "ODbL 1.0"}, "geometry": {"type": "Point", "coordinates": [-0.1238108, 51.5049549]}}, {"type": "Feature", "properties": {"height": 8, "species": "", "leaf_type": "", "source_id": "osm/node/11775781207", "source": "OpenStreetMap", "licence": "ODbL 1.0"}, "geometry": {"type": "Point", "coordinates": [-0.1229169, 51.5061025]}}, {"type": "Feature", "properties": {"height": 8, "species": "", "leaf_type": "", "source_id": "osm/node/11775781208", "source": "OpenStreetMap", "licence": "ODbL 1.0"}, "geometry": {"type": "Point", "coordinates": [-0.1231464, 51.5064544]}}, {"type": "Feature", "properties": {"height": 8, "species": "", "leaf_type": "", "source_id": "osm/node/11775781209", "source": "OpenStreetMap", "licence": "ODbL 1.0"}, "geometry": {"type": "Point", "coordinates": [-0.1233505, 51.5061695]}}, {"type": "Feature", "properties": {"height": 8, "species": "", "leaf_type": "", "source_id": "osm/node/11775781210", "source": "OpenStreetMap", "licence": "ODbL 1.0"}, "geometry": {"type": "Point", "coordinates": [-0.1233857, 51.5060819]}}, {"type": "Feature", "properties": {"height": 8, "species": "", "leaf_type": "", "source_id": "osm/node/11775781211", "source": "OpenStreetMap", "licence": "ODbL 1.0"}, "geometry": {"type": "Point", "coordinates": [-0.1234075, 51.5059358]}}, {"type": "Feature", "properties": {"height": 8, "species": "", "leaf_type": "", "source_id": "osm/node/11775781212", "source": "OpenStreetMap", "licence": "ODbL 1.0"}, "geometry": {"type": "Point", "coordinates": [-0.1222793, 51.5062822]}}, {"type": "Feature", "properties": {"height": 8, "species": "", "leaf_type": "", "source_id": "osm/node/11775781213", "source": "OpenStreetMap", "licence": "ODbL 1.0"}, "geometry": {"type": "Point", "coordinates": [-0.1223581, 51.5062895]}}, {"type": "Feature", "properties": {"height": 8, "species": "", "leaf_type": "", "source_id": "osm/node/11775781233", "source": "OpenStreetMap", "licence": "ODbL 1.0"}, "geometry": {"type": "Point", "coordinates": [-0.1227855, 51.5064732]}}, {"type": "Feature", "properties": {"height": 8, "species": "", "leaf_type": "", "source_id": "osm/node/11775781234", "source": "OpenStreetMap", "licence": "ODbL 1.0"}, "geometry": {"type": "Point", "coordinates": [-0.1233421, 51.5067987]}}, {"type": "Feature", "properties": {"height": 8, "species": "", "leaf_type": "", "source_id": "osm/node/11775781235", "source": "OpenStreetMap", "licence": "ODbL 1.0"}, "geometry": {"type": "Point", "coordinates": [-0.1238383, 51.506877]}}, {"type": "Feature", "properties": {"height": 8, "species": "", "leaf_type": "", "source_id": "osm/node/11775781236", "source": "OpenStreetMap", "licence": "ODbL 1.0"}, "geometry": {"type": "Point", "coordinates": [-0.1239858, 51.5067476]}}, {"type": "Feature", "properties": {"height": 8, "species": "", "leaf_type": "", "source_id": "osm/node/11775781237", "source": "OpenStreetMap", "licence": "ODbL 1.0"}, "geometry": {"type": "Point", "coordinates": [-0.1227906, 51.5060363]}}, {"type": "Feature", "properties": {"height": 8, "species": "", "leaf_type": "", "source_id": "osm/node/11775781238", "source": "OpenStreetMap", "licence": "ODbL 1.0"}, "geometry": {"type": "Point", "coordinates": [-0.1228744, 51.5058902]}}, {"type": "Feature", "properties": {"height": 8, "species": "", "leaf_type": "", "source_id": "osm/node/11775781239", "source": "OpenStreetMap", "licence": "ODbL 1.0"}, "geometry": {"type": "Point", "coordinates": [-0.1219508, 51.5071727]}}, {"type": "Feature", "properties": {"height": 8, "species": "", "leaf_type": "", "source_id": "osm/node/11775781240", "source": "OpenStreetMap", "licence": "ODbL 1.0"}, "geometry": {"type": "Point", "coordinates": [-0.1216725, 51.5070433]}}, {"type": "Feature", "properties": {"height": 8, "species": "", "leaf_type": "", "source_id": "osm/node/11775781241", "source": "OpenStreetMap", "licence": "ODbL 1.0"}, "geometry": {"type": "Point", "coordinates": [-0.1216306, 51.5071195]}}, {"type": "Feature", "properties": {"height": 8, "species": "", "leaf_type": "", "source_id": "osm/node/11775781242", "source": "OpenStreetMap", "licence": "ODbL 1.0"}, "geometry": {"type": "Point", "coordinates": [-0.1215116, 51.5072488]}}, {"type": "Feature", "properties": {"height": 8, "species": "", "leaf_type": "", "source_id": "osm/node/11775781243", "source": "OpenStreetMap", "licence": "ODbL 1.0"}, "geometry": {"type": "Point", "coordinates": [-0.1214345, 51.5073542]}}, {"type": "Feature", "properties": {"height": 8, "species": "", "leaf_type": "", "source_id": "osm/node/11775781244", "source": "OpenStreetMap", "licence": "ODbL 1.0"}, "geometry": {"type": "Point", "coordinates": [-0.1225912, 51.5077038]}}, {"type": "Feature", "properties": {"height": 8, "species": "", "leaf_type": "", "source_id": "osm/node/11775781245", "source": "OpenStreetMap", "licence": "ODbL 1.0"}, "geometry": {"type": "Point", "coordinates": [-0.1226868, 51.5076005]}}, {"type": "Feature", "properties": {"height": 8, "species": "", "leaf_type": "", "source_id": "osm/node/11775781246", "source": "OpenStreetMap", "licence": "ODbL 1.0"}, "geometry": {"type": "Point", "coordinates": [-0.1224621, 51.5075838]}}, {"type": "Feature", "properties": {"height": 8, "species": "", "leaf_type": "", "source_id": "osm/node/11775781247", "source": "OpenStreetMap", "licence": "ODbL 1.0"}, "geometry": {"type": "Point", "coordinates": [-0.1225258, 51.507493]}}, {"type": "Feature", "properties": {"height": 8, "species": "", "leaf_type": "", "source_id": "osm/node/11775781248", "source": "OpenStreetMap", "licence": "ODbL 1.0"}, "geometry": {"type": "Point", "coordinates": [-0.1229768, 51.5079542]}}, {"type": "Feature", "properties": {"height": 8, "species": "", "leaf_type": "", "source_id": "osm/node/11775976296", "source": "OpenStreetMap", "licence": "ODbL 1.0"}, "geometry": {"type": "Point", "coordinates": [-0.1257303, 51.5070633]}}, {"type": "Feature", "properties": {"height": 8, "species": "", "leaf_type": "", "source_id": "osm/node/11775976297", "source": "OpenStreetMap", "licence": "ODbL 1.0"}, "geometry": {"type": "Point", "coordinates": [-0.1256197, 51.5070508]}}, {"type": "Feature", "properties": {"height": 8, "species": "", "leaf_type": "", "source_id": "osm/node/11775976298", "source": "OpenStreetMap", "licence": "ODbL 1.0"}, "geometry": {"type": "Point", "coordinates": [-0.1256532, 51.5071916]}}, {"type": "Feature", "properties": {"height": 8, "species": "", "leaf_type": "", "source_id": "osm/node/11775976299", "source": "OpenStreetMap", "licence": "ODbL 1.0"}, "geometry": {"type": "Point", "coordinates": [-0.1269809, 51.5074827]}}, {"type": "Feature", "properties": {"height": 8, "species": "", "leaf_type": "", "source_id": "osm/node/11775976680", "source": "OpenStreetMap", "licence": "ODbL 1.0"}, "geometry": {"type": "Point", "coordinates": [-0.1272832, 51.5033121]}}, {"type": "Feature", "properties": {"height": 8, "species": "", "leaf_type": "", "source_id": "osm/node/11775976681", "source": "OpenStreetMap", "licence": "ODbL 1.0"}, "geometry": {"type": "Point", "coordinates": [-0.1278929, 51.5032845]}}, {"type": "Feature", "properties": {"height": 8, "species": "", "leaf_type": "", "source_id": "osm/node/11775976682", "source": "OpenStreetMap", "licence": "ODbL 1.0"}, "geometry": {"type": "Point", "coordinates": [-0.1279977, 51.503269]}}, {"type": "Feature", "properties": {"height": 8, "species": "", "leaf_type": "", "source_id": "osm/node/11775976702", "source": "OpenStreetMap", "licence": "ODbL 1.0"}, "geometry": {"type": "Point", "coordinates": [-0.1278124, 51.5010258]}}, {"type": "Feature", "properties": {"height": 8, "species": "", "leaf_type": "", "source_id": "osm/node/11775976703", "source": "OpenStreetMap", "licence": "ODbL 1.0"}, "geometry": {"type": "Point", "coordinates": [-0.1271452, 51.5009058]}}, {"type": "Feature", "properties": {"height": 8, "species": "", "leaf_type": "", "source_id": "osm/node/11775976704", "source": "OpenStreetMap", "licence": "ODbL 1.0"}, "geometry": {"type": "Point", "coordinates": [-0.127001, 51.5008953]}}, {"type": "Feature", "properties": {"height": 8, "species": "", "leaf_type": "", "source_id": "osm/node/11775976705", "source": "OpenStreetMap", "licence": "ODbL 1.0"}, "geometry": {"type": "Point", "coordinates": [-0.1271972, 51.5006065]}}, {"type": "Feature", "properties": {"height": 8, "species": "", "leaf_type": "", "source_id": "osm/node/11775976706", "source": "OpenStreetMap", "licence": "ODbL 1.0"}, "geometry": {"type": "Point", "coordinates": [-0.127198, 51.5005241]}}, {"type": "Feature", "properties": {"height": 8, "species": "", "leaf_type": "", "source_id": "osm/node/11775976707", "source": "OpenStreetMap", "licence": "ODbL 1.0"}, "geometry": {"type": "Point", "coordinates": [-0.1271561, 51.5004286]}}, {"type": "Feature", "properties": {"height": 8, "species": "", "leaf_type": "", "source_id": "osm/node/11775976708", "source": "OpenStreetMap", "licence": "ODbL 1.0"}, "geometry": {"type": "Point", "coordinates": [-0.1271377, 51.5005037]}}, {"type": "Feature", "properties": {"height": 8, "species": "", "leaf_type": "", "source_id": "osm/node/11775976709", "source": "OpenStreetMap", "licence": "ODbL 1.0"}, "geometry": {"type": "Point", "coordinates": [-0.1271209, 51.5006869]}}, {"type": "Feature", "properties": {"height": 8, "species": "", "leaf_type": "", "source_id": "osm/node/11775976710", "source": "OpenStreetMap", "licence": "ODbL 1.0"}, "geometry": {"type": "Point", "coordinates": [-0.1272055, 51.5008799]}}, {"type": "Feature", "properties": {"height": 8, "species": "", "leaf_type": "", "source_id": "osm/node/11775976711", "source": "OpenStreetMap", "licence": "ODbL 1.0"}, "geometry": {"type": "Point", "coordinates": [-0.1272827, 51.5007385]}}, {"type": "Feature", "properties": {"height": 8, "species": "", "leaf_type": "", "source_id": "osm/node/11775976712", "source": "OpenStreetMap", "licence": "ODbL 1.0"}, "geometry": {"type": "Point", "coordinates": [-0.1277739, 51.500548]}}, {"type": "Feature", "properties": {"height": 8, "species": "Platanus", "leaf_type": "", "source_id": "osm/node/11775976973", "source": "OpenStreetMap", "licence": "ODbL 1.0"}, "geometry": {"type": "Point", "coordinates": [-0.1279263, 51.4999642]}}, {"type": "Feature", "properties": {"height": 8, "species": "", "leaf_type": "", "source_id": "osm/node/11775976974", "source": "OpenStreetMap", "licence": "ODbL 1.0"}, "geometry": {"type": "Point", "coordinates": [-0.1271166, 51.5001093]}}, {"type": "Feature", "properties": {"height": 8, "species": "", "leaf_type": "", "source_id": "osm/node/11775976975", "source": "OpenStreetMap", "licence": "ODbL 1.0"}, "geometry": {"type": "Point", "coordinates": [-0.1270211, 51.5001155]}}, {"type": "Feature", "properties": {"height": 8, "species": "", "leaf_type": "", "source_id": "osm/node/11775976976", "source": "OpenStreetMap", "licence": "ODbL 1.0"}, "geometry": {"type": "Point", "coordinates": [-0.1270865, 51.5001677]}}, {"type": "Feature", "properties": {"height": 8, "species": "", "leaf_type": "", "source_id": "osm/node/11775976977", "source": "OpenStreetMap", "licence": "ODbL 1.0"}, "geometry": {"type": "Point", "coordinates": [-0.1264478, 51.5001395]}}, {"type": "Feature", "properties": {"height": 8, "species": "", "leaf_type": "", "source_id": "osm/node/11775976978", "source": "OpenStreetMap", "licence": "ODbL 1.0"}, "geometry": {"type": "Point", "coordinates": [-0.1263857, 51.5001155]}}, {"type": "Feature", "properties": {"height": 8, "species": "", "leaf_type": "", "source_id": "osm/node/11775976979", "source": "OpenStreetMap", "licence": "ODbL 1.0"}, "geometry": {"type": "Point", "coordinates": [-0.1264662, 51.5000915]}}, {"type": "Feature", "properties": {"height": 8, "species": "", "leaf_type": "", "source_id": "osm/node/11775976980", "source": "OpenStreetMap", "licence": "ODbL 1.0"}, "geometry": {"type": "Point", "coordinates": [-0.1264193, 51.5000258]}}, {"type": "Feature", "properties": {"height": 8, "species": "", "leaf_type": "", "source_id": "osm/node/11775976981", "source": "OpenStreetMap", "licence": "ODbL 1.0"}, "geometry": {"type": "Point", "coordinates": [-0.1265249, 51.4996606]}}, {"type": "Feature", "properties": {"height": 8, "species": "", "leaf_type": "", "source_id": "osm/node/11775977008", "source": "OpenStreetMap", "licence": "ODbL 1.0"}, "geometry": {"type": "Point", "coordinates": [-0.1276413, 51.4988815]}}, {"type": "Feature", "properties": {"height": 8, "species": "", "leaf_type": "", "source_id": "osm/node/11903526058", "source": "OpenStreetMap", "licence": "ODbL 1.0"}, "geometry": {"type": "Point", "coordinates": [-0.1239081, 51.5024565]}}, {"type": "Feature", "properties": {"height": 8, "species": "", "leaf_type": "", "source_id": "osm/node/11903526059", "source": "OpenStreetMap", "licence": "ODbL 1.0"}, "geometry": {"type": "Point", "coordinates": [-0.123771, 51.5032081]}}, {"type": "Feature", "properties": {"height": 8, "species": "", "leaf_type": "", "source_id": "osm/node/11903526060", "source": "OpenStreetMap", "licence": "ODbL 1.0"}, "geometry": {"type": "Point", "coordinates": [-0.1235107, 51.5034229]}}, {"type": "Feature", "properties": {"height": 8, "species": "", "leaf_type": "", "source_id": "osm/node/11903526061", "source": "OpenStreetMap", "licence": "ODbL 1.0"}, "geometry": {"type": "Point", "coordinates": [-0.1235586, 51.5038736]}}, {"type": "Feature", "properties": {"height": 8, "species": "", "leaf_type": "", "source_id": "osm/node/11903526062", "source": "OpenStreetMap", "licence": "ODbL 1.0"}, "geometry": {"type": "Point", "coordinates": [-0.1236578, 51.5035457]}}, {"type": "Feature", "properties": {"height": 8, "species": "", "leaf_type": "", "source_id": "osm/node/11903526063", "source": "OpenStreetMap", "licence": "ODbL 1.0"}, "geometry": {"type": "Point", "coordinates": [-0.1231084, 51.5041002]}}, {"type": "Feature", "properties": {"height": 8, "species": "", "leaf_type": "", "source_id": "osm/node/11903526064", "source": "OpenStreetMap", "licence": "ODbL 1.0"}, "geometry": {"type": "Point", "coordinates": [-0.1232221, 51.5039011]}}, {"type": "Feature", "properties": {"height": 8, "species": "", "leaf_type": "", "source_id": "osm/node/11903526065", "source": "OpenStreetMap", "licence": "ODbL 1.0"}, "geometry": {"type": "Point", "coordinates": [-0.1234751, 51.5040974]}}, {"type": "Feature", "properties": {"height": 8, "species": "", "leaf_type": "", "source_id": "osm/node/11903526066", "source": "OpenStreetMap", "licence": "ODbL 1.0"}, "geometry": {"type": "Point", "coordinates": [-0.1235804, 51.5043993]}}, {"type": "Feature", "properties": {"height": 8, "species": "", "leaf_type": "", "source_id": "osm/node/11903526067", "source": "OpenStreetMap", "licence": "ODbL 1.0"}, "geometry": {"type": "Point", "coordinates": [-0.1236341, 51.5046611]}}, {"type": "Feature", "properties": {"height": 8, "species": "", "leaf_type": "", "source_id": "osm/node/11903526068", "source": "OpenStreetMap", "licence": "ODbL 1.0"}, "geometry": {"type": "Point", "coordinates": [-0.1234152, 51.504605]}}, {"type": "Feature", "properties": {"height": 8, "species": "", "leaf_type": "", "source_id": "osm/node/11903542869", "source": "OpenStreetMap", "licence": "ODbL 1.0"}, "geometry": {"type": "Point", "coordinates": [-0.1233021, 51.504622]}}, {"type": "Feature", "properties": {"height": 8, "species": "", "leaf_type": "", "source_id": "osm/node/11903542870", "source": "OpenStreetMap", "licence": "ODbL 1.0"}, "geometry": {"type": "Point", "coordinates": [-0.1238594, 51.5046985]}}, {"type": "Feature", "properties": {"height": 8, "species": "", "leaf_type": "", "source_id": "osm/node/11903542871", "source": "OpenStreetMap", "licence": "ODbL 1.0"}, "geometry": {"type": "Point", "coordinates": [-0.1231513, 51.5047399]}}, {"type": "Feature", "properties": {"height": 8, "species": "", "leaf_type": "", "source_id": "osm/node/11903542872", "source": "OpenStreetMap", "licence": "ODbL 1.0"}, "geometry": {"type": "Point", "coordinates": [-0.1230633, 51.5048748]}}, {"type": "Feature", "properties": {"height": 8, "species": "", "leaf_type": "", "source_id": "osm/node/11903542873", "source": "OpenStreetMap", "licence": "ODbL 1.0"}, "geometry": {"type": "Point", "coordinates": [-0.1230903, 51.5057512]}}, {"type": "Feature", "properties": {"height": 8, "species": "", "leaf_type": "", "source_id": "osm/node/11903542874", "source": "OpenStreetMap", "licence": "ODbL 1.0"}, "geometry": {"type": "Point", "coordinates": [-0.1232285, 51.505361]}}, {"type": "Feature", "properties": {"height": 8, "species": "", "leaf_type": "", "source_id": "osm/node/11903542875", "source": "OpenStreetMap", "licence": "ODbL 1.0"}, "geometry": {"type": "Point", "coordinates": [-0.1233444, 51.5049803]}}, {"type": "Feature", "properties": {"height": 8, "species": "", "leaf_type": "", "source_id": "osm/node/11903542876", "source": "OpenStreetMap", "licence": "ODbL 1.0"}, "geometry": {"type": "Point", "coordinates": [-0.1239087, 51.5048855]}}, {"type": "Feature", "properties": {"height": 8, "species": "", "leaf_type": "", "source_id": "osm/node/11903542877", "source": "OpenStreetMap", "licence": "ODbL 1.0"}, "geometry": {"type": "Point", "coordinates": [-0.1235375, 51.5066619]}}, {"type": "Feature", "properties": {"height": 8, "species": "", "leaf_type": "", "source_id": "osm/node/11903542878", "source": "OpenStreetMap", "licence": "ODbL 1.0"}, "geometry": {"type": "Point", "coordinates": [-0.1247027, 51.506878]}}, {"type": "Feature", "properties": {"height": 8, "species": "", "leaf_type": "", "source_id": "osm/node/11903542879", "source": "OpenStreetMap", "licence": "ODbL 1.0"}, "geometry": {"type": "Point", "coordinates": [-0.1242628, 51.5067992]}}, {"type": "Feature", "properties": {"height": 8, "species": "", "leaf_type": "", "source_id": "osm/node/11903542880", "source": "OpenStreetMap", "licence": "ODbL 1.0"}, "geometry": {"type": "Point", "coordinates": [-0.1215742, 51.5076385]}}, {"type": "Feature", "properties": {"height": 8, "species": "", "leaf_type": "", "source_id": "osm/node/11903542881", "source": "OpenStreetMap", "licence": "ODbL 1.0"}, "geometry": {"type": "Point", "coordinates": [-0.1230956, 51.5078602]}}, {"type": "Feature", "properties": {"height": 8, "species": "", "leaf_type": "", "source_id": "osm/node/11903542882", "source": "OpenStreetMap", "licence": "ODbL 1.0"}, "geometry": {"type": "Point", "coordinates": [-0.1230935, 51.5077934]}}, {"type": "Feature", "properties": {"height": 8, "species": "", "leaf_type": "", "source_id": "osm/node/12889047456", "source": "OpenStreetMap", "licence": "ODbL 1.0"}, "geometry": {"type": "Point", "coordinates": [-0.1275996, 51.5054929]}}, {"type": "Feature", "properties": {"height": 8, "species": "", "leaf_type": "", "source_id": "osm/node/12919167397", "source": "OpenStreetMap", "licence": "ODbL 1.0"}, "geometry": {"type": "Point", "coordinates": [-0.1271961, 51.5040846]}}, {"type": "Feature", "properties": {"height": 8, "species": "", "leaf_type": "", "source_id": "osm/node/13367693997", "source": "OpenStreetMap", "licence": "ODbL 1.0"}, "geometry": {"type": "Point", "coordinates": [-0.1269843, 51.5007985]}}, {"type": "Feature", "properties": {"height": 8, "species": "", "leaf_type": "", "source_id": "osm/node/13367693998", "source": "OpenStreetMap", "licence": "ODbL 1.0"}, "geometry": {"type": "Point", "coordinates": [-0.1268642, 51.5007924]}}, {"type": "Feature", "properties": {"height": 8, "species": "", "leaf_type": "", "source_id": "osm/node/13367693999", "source": "OpenStreetMap", "licence": "ODbL 1.0"}, "geometry": {"type": "Point", "coordinates": [-0.1267553, 51.5007868]}}, {"type": "Feature", "properties": {"height": 8, "species": "", "leaf_type": "", "source_id": "osm/node/13367694000", "source": "OpenStreetMap", "licence": "ODbL 1.0"}, "geometry": {"type": "Point", "coordinates": [-0.126642, 51.5007807]}}, {"type": "Feature", "properties": {"height": 8, "species": "", "leaf_type": "", "source_id": "osm/node/13367758901", "source": "OpenStreetMap", "licence": "ODbL 1.0"}, "geometry": {"type": "Point", "coordinates": [-0.1265389, 51.5007756]}}, {"type": "Feature", "properties": {"height": 8, "species": "", "leaf_type": "", "source_id": "osm/node/13628538873", "source": "OpenStreetMap", "licence": "ODbL 1.0"}, "geometry": {"type": "Point", "coordinates": [-0.1269465, 51.5015631]}}, {"type": "Feature", "properties": {"height": 8, "species": "", "leaf_type": "", "source_id": "osm/node/13628538874", "source": "OpenStreetMap", "licence": "ODbL 1.0"}, "geometry": {"type": "Point", "coordinates": [-0.1269231, 51.5017251]}}]}